2022-019T               
1 51841U 22019T   22061.81564564  .00003420  00000+0  21462-3 0  9999
2 51841  97.5214 138.5484 0014014 259.9581 100.0062 15.09894794   556
2022-019U               
1 51842U 22019U   22061.78665588  .00004317  00000+0  17956-3 0  9993
2 51842  97.5686 138.6216 0071267 200.4054 159.4299 15.22010374   552
2022-019V               
1 51843U 22019V   22061.94799693  .00002942  00000+0  18477-3 0  9998
2 51843  97.5246 138.6803 0014450 266.6519  93.3059 15.09968750   575
2022-019W               
1 51844U 22019W   22061.95025937  .00002407  00000+0  15550-3 0  9998
2 51844  97.5216 138.6765 0017040 264.4886  95.4399 15.09065270   475
2022-019X               
1 51845U 22019X   22061.94880302  .00004005  00000+0  25217-3 0  9990
2 51845  97.5218 138.6786 0015235 261.4849  98.4649 15.09651622   496
2022-019Y               
1 51846U 22019Y   22061.74983330  .00003562  00000+0  22448-3 0  9994
2 51846  97.5199 138.4867 0015135 260.1214  99.8304 15.09700267   464
STRIX-BETA              
1 51847U 22020A   22061.88782149 -.00000062  00000+0  00000+0 0  9996
2 51847  97.7759 115.6608 0013017 285.7447  74.2354 15.00976455   307
ELECTRON KICK STAGE     
1 51848U 20020B   22061.93360873  .00004179  00000+0  20657-3 0  9993
2 51848  97.0932 114.7844 0060663  24.3133 336.0943 15.16716541   313
ELECTRON STAGE 2        
1 51849U 20020C   22061.94191706  .01070387  23437-5  10267-2 0  9997
2 51849  97.7337 115.7835 0298977 215.4054 142.7060 15.61138850   310
2022-021A               
1 51850U 22022A   22061.41360573 -.00000181  00000+0  00000+0 0  9996
2 51850   9.4244 334.3871 4633726 179.7628 337.5126  1.80775061    17
2022-021B               
1 51851U 22022B   22061.16528521 -.00000182  00000+0  00000+0 0  9999
2 51851   9.3750 334.5324 4632108 179.5801 175.9040  1.80759695    01
